GPS BIIR-2  (PRN 13)    
1 24876U 97035A   26046.54819252  .00000017  00000+0  00000+0 0  9991
2 24876  55.9259 103.3314 0097531  56.4347 304.5717  2.00564001209515
GPS BIIR-5  (PRN 22)    
1 26407U 00040A   26044.40878242  .00000073  00000+0  00000+0 0  9992
2 26407  54.8795 220.0761 0123223 302.4869 246.5265  2.00568763187465
GPS BIIR-8  (PRN 16)    
1 27663U 03005A   26046.46639959  .00000062  00000+0  00000+0 0  9997
2 27663  54.9111 219.8026 0148771  52.5853 318.2140  2.00567235168870
GPS BIIR-11 (PRN 19)    
1 28190U 04009A   26043.75711060  .00000015  00000+0  00000+0 0  9999
2 28190  54.9313 280.7146 0110107 168.6137 202.4265  2.00558798160458
GPS BIIR-13 (PRN 02)    
1 28474U 04045A   26046.64130585 -.00000071  00000+0  00000+0 0  9995
2 28474  55.2046 329.7947 0171047 312.1285  43.9746  2.00572621155988
GPS BIIRM-1 (PRN 17)    
1 28874U 05038A   26046.46400544  .00000031  00000+0  00000+0 0  9992
2 28874  54.9760 278.0896 0129340 295.0647 253.3095  2.00574211149399
GPS BIIRM-2 (PRN 31)    
1 29486U 06042A   26046.36149031 -.00000003  00000+0  00000+0 0  9998
2 29486  54.6979 156.1769 0106457  53.0153 319.1845  2.00551767141950
GPS BIIRM-3 (PRN 12)    
1 29601U 06052A   26046.75973470  .00000060  00000+0  00000+0 0  9995
2 29601  54.9598 218.8169 0088136  89.0582 271.9380  2.00550496140975
GPS BIIRM-4 (PRN 15)    
1 32260U 07047A   26046.56880617  .00000014  00000+0  00000+0 0  9993
2 32260  54.0020  85.0786 0163519  85.8375 276.1117  2.00561621134377
GPS BIIRM-5 (PRN 29)    
1 32384U 07062A   26046.13227666  .00000029  00000+0  00000+0 0  9995
2 32384  55.1280 279.0587 0032411 160.7253  12.7320  2.00552515133069
GPS BIIRM-6 (PRN 07)    
1 32711U 08012A   26046.48765293 -.00000003  00000+0  00000+0 0  9999
2 32711  54.4820 154.7880 0205971 245.8884 111.9361  2.00568471131319
GPS BIIRM-8 (PRN 05)    
1 35752U 09043A   26046.71778479 -.00000040  00000+0  00000+0 0  9999
2 35752  56.1371  32.2234 0051440  80.8154 101.8553  2.00561549120922
GPS BIIF-1  (PRN 25)    
1 36585U 10022A   26046.79490995  .00000053  00000+0  00000+0 0  9998
2 36585  54.2918 213.4500 0127424  65.7642 289.4734  2.00556440115159
GPS BIIF-3  (PRN 24)    
1 38833U 12053A   26046.66548852 -.00000003  00000+0  00000+0 0  9990
2 38833  53.5647 148.5796 0176748  64.6684 297.1503  2.00565618 97000
GPS BIIF-4  (PRN 27)    
1 39166U 13023A   26046.03165405  .00000037  00000+0  00000+0 0  9994
2 39166  54.5988 273.9494 0141133  49.6145 311.6825  2.00564365 93432
GPS BIIF-5  (PRN 30)    
1 39533U 14008A   26046.52775434 -.00000003  00000+0  00000+0 0  9993
2 39533  53.6372 154.2835 0081691 227.6797 131.6165  2.00552025 87249
GPS BIIF-6  (PRN 06)    
1 39741U 14026A   26046.80699758 -.00000076  00000+0  00000+0 0  9999
2 39741  56.5547 336.2460 0040007 323.5054  36.2417  2.00569893 86105
GPS BIIF-7  (PRN 09)    
1 40105U 14045A   26045.89596597  .00000012  00000+0  00000+0 0  9990
2 40105  55.2687  93.3370 0031802 120.7554 239.6368  2.00550419 83620
GPS BIIF-8  (PRN 03)    
1 40294U 14068A   26046.27412109 -.00000033  00000+0  00000+0 0  9997
2 40294  56.9069  35.6522 0062092  68.0973 292.5814  2.00568806 82760
GPS BIIF-9  (PRN 26)    
1 40534U 15013A   26046.40482136  .00000047  00000+0  00000+0 0  9991
2 40534  53.1896 209.2124 0108627  39.6480 321.1117  2.00558622 79387
GPS BIIF-10 (PRN 08)    
1 40730U 15033A   26046.56562051  .00000039  00000+0  00000+0 0  9994
2 40730  54.0771 272.1001 0114072  28.5749 332.1185  2.00562456 77550
GPS BIIF-11 (PRN 10)    
1 41019U 15062A   26046.62463275 -.00000033  00000+0  00000+0 0  9997
2 41019  56.8808  35.4949 0111511 231.3152 127.7003  2.00567124 75394
GPS BIIF-12 (PRN 32)    
1 41328U 16007A   26046.21071033  .00000015  00000+0  00000+0 0  9991
2 41328  55.4438  94.2957 0094970 245.4952 113.5899  2.00557698 73395
GPS BIII-1  (PRN 04)    
1 43873U 18109A   26046.59825191  .00000019  00000+0  00000+0 0  9990
2 43873  55.6032  96.9840 0038024 197.8161 334.6574  2.00556075 52632
GPS BIII-2  (PRN 18)    
1 44506U 19056A   26046.24037865 -.00000080  00000+0  00000+0 0  9990
2 44506  55.6935 335.9926 0057837 198.3886 335.3228  2.00568040 47624
GPS BIII-3  (PRN 23)    
1 45854U 20041A   26046.80098905 -.00000037  00000+0  00000+0 0  9999
2 45854  56.5940  33.6541 0061302 205.0026 316.1246  2.00560951 41608
GPS BIII-4  (PRN 14)    
1 46826U 20078A   26046.85140272  .00000055  00000+0  00000+0 0  9998
2 46826  54.0052 215.6971 0067374 203.8754 326.4290  2.00565781 39070
GPS BIII-5  (PRN 11)    
1 48859U 21054A   26046.55125550 -.00000080  00000+0  00000+0 0  9999
2 48859  55.2293 337.3524 0023986 232.3936 264.9236  2.00576584 34315
GPS BIII-6  (PRN 28)    
1 55268U 23009A   26045.30902507 -.00000012  00000+0  00000+0 0  9995
2 55268  55.1093 153.3491 0004280 337.6800  23.4537  2.00550629 22780
GPS BIII-7  (PRN 01)    
1 62339U 24242A   26046.44140339 -.00000082  00000+0  00000+0 0  9992
2 62339  54.8995 339.1202 0015167 353.9976 185.5547  2.00569394  8817
GPS BIII-8  (PRN 21)    
1 64202U 25116A   26046.18590881 -.00000037  00000+0  00000+0 0  9996
2 64202  55.1545  36.0404 0007915 321.9935 219.7147  2.00554338  5424
GPS BIII-9  (PRN 20)    
1 67588U 26017A   26046.54502406  .00000017  00000+0  00000+0 0  9990
2 67588  55.0067  93.6366 0000902  51.2369 308.8521  2.00561312429179
